CCSDS_OMM_VERS = 2.0
CREATION_DATE  = 
ORIGINATOR     = 

OBJECT_NAME    = STARLINK-35600
OBJECT_ID      = 2025-263AB
CENTER_NAME    = EARTH
REF_FRAME      = TEME
TIME_SYSTEM    = UTC
MEAN_ELEMENT_THEORY = SGP/SGP4

EPOCH          = 2025-11-28T14:00:01.999872
MEAN_MOTION    = 15.82177892
ECCENTRICITY   = .00016182
INCLINATION    = 42.9973
RA_OF_ASC_NODE = 209.3975
ARG_OF_PERICENTER = 258.8838
MEAN_ANOMALY   = 240.3997

EPHEMERIS_TYPE = 0
CLASSIFICATION_TYPE = U
NORAD_CAT_ID   = 66510
ELEMENT_SET_NO = 999
REV_AT_EPOCH   = 336
BSTAR          = -.89868556E-2
MEAN_MOTION_DOT = -.1658565E-1
MEAN_MOTION_DDOT = 0

CCSDS_OMM_VERS = 2.0
CREATION_DATE  = 
ORIGINATOR     = 

OBJECT_NAME    = STARLINK-35444
OBJECT_ID      = 2025-263AC
CENTER_NAME    = EARTH
REF_FRAME      = TEME
TIME_SYSTEM    = UTC
MEAN_ELEMENT_THEORY = SGP/SGP4

EPOCH          = 2025-11-28T14:00:01.999872
MEAN_MOTION    = 15.82029963
ECCENTRICITY   = .00015813
INCLINATION    = 42.9970
RA_OF_ASC_NODE = 209.3835
ARG_OF_PERICENTER = 262.1400
MEAN_ANOMALY   = 242.5802

EPHEMERIS_TYPE = 0
CLASSIFICATION_TYPE = U
NORAD_CAT_ID   = 66511
ELEMENT_SET_NO = 999
REV_AT_EPOCH   = 336
BSTAR          = -.91816346E-2
MEAN_MOTION_DOT = -.167933E-1
MEAN_MOTION_DDOT = 0

CCSDS_OMM_VERS = 2.0
CREATION_DATE  = 
ORIGINATOR     = 

OBJECT_NAME    = STARLINK-35366
OBJECT_ID      = 2025-263AD
CENTER_NAME    = EARTH
REF_FRAME      = TEME
TIME_SYSTEM    = UTC
MEAN_ELEMENT_THEORY = SGP/SGP4

EPOCH          = 2025-11-28T14:00:01.999872
MEAN_MOTION    = 15.81885871
ECCENTRICITY   = .00013925
INCLINATION    = 42.9968
RA_OF_ASC_NODE = 209.3687
ARG_OF_PERICENTER = 256.0930
MEAN_ANOMALY   = 254.2757

EPHEMERIS_TYPE = 0
CLASSIFICATION_TYPE = U
NORAD_CAT_ID   = 66512
ELEMENT_SET_NO = 999
REV_AT_EPOCH   = 336
BSTAR          = -.9873747E-2
MEAN_MOTION_DOT = -.1816126E-1
MEAN_MOTION_DDOT = 0

CCSDS_OMM_VERS = 2.0
CREATION_DATE  = 
ORIGINATOR     = 

OBJECT_NAME    = STARLINK-35692
OBJECT_ID      = 2025-263AE
CENTER_NAME    = EARTH
REF_FRAME      = TEME
TIME_SYSTEM    = UTC
MEAN_ELEMENT_THEORY = SGP/SGP4

EPOCH          = 2025-11-28T14:00:01.999872
MEAN_MOTION    = 15.82087453
ECCENTRICITY   = .00014915
INCLINATION    = 42.9971
RA_OF_ASC_NODE = 209.3900
ARG_OF_PERICENTER = 258.6300
MEAN_ANOMALY   = 243.5347

EPHEMERIS_TYPE = 0
CLASSIFICATION_TYPE = U
NORAD_CAT_ID   = 66513
ELEMENT_SET_NO = 999
REV_AT_EPOCH   = 336
BSTAR          = -.91002246E-2
MEAN_MOTION_DOT = -.1670313E-1
MEAN_MOTION_DDOT = 0

CCSDS_OMM_VERS = 2.0
CREATION_DATE  = 
ORIGINATOR     = 

OBJECT_NAME    = SENTINEL-6B
OBJECT_ID      = 2025-264A
CENTER_NAME    = EARTH
REF_FRAME      = TEME
TIME_SYSTEM    = UTC
MEAN_ELEMENT_THEORY = SGP/SGP4

EPOCH          = 2025-11-28T14:59:38.774112
MEAN_MOTION    = 12.85876689
ECCENTRICITY   = .00114985
INCLINATION    = 66.0391
RA_OF_ASC_NODE = 191.9350
ARG_OF_PERICENTER = 269.3086
MEAN_ANOMALY   = 90.6614

EPHEMERIS_TYPE = 0
CLASSIFICATION_TYPE = U
NORAD_CAT_ID   = 66514
ELEMENT_SET_NO = 999
REV_AT_EPOCH   = 147
BSTAR          = .57574611E-4
MEAN_MOTION_DOT = -.48E-6
MEAN_MOTION_DDOT = 0

CCSDS_OMM_VERS = 2.0
CREATION_DATE  = 
ORIGINATOR     = 

OBJECT_NAME    = SZ-21 MODULE
OBJECT_ID      = 2025-246C
CENTER_NAME    = EARTH
REF_FRAME      = TEME
TIME_SYSTEM    = UTC
MEAN_ELEMENT_THEORY = SGP/SGP4

EPOCH          = 2025-11-28T15:57:06.490080
MEAN_MOTION    = 15.61497174
ECCENTRICITY   = .00052365
INCLINATION    = 41.4759
RA_OF_ASC_NODE = 101.8430
ARG_OF_PERICENTER = 173.0279
MEAN_ANOMALY   = 187.0634

EPHEMERIS_TYPE = 0
CLASSIFICATION_TYPE = U
NORAD_CAT_ID   = 66515
ELEMENT_SET_NO = 999
REV_AT_EPOCH   = 224
BSTAR          = .3185385E-3
MEAN_MOTION_DOT = .27837E-3
MEAN_MOTION_DDOT = 0

CCSDS_OMM_VERS = 2.0
CREATION_DATE  = 
ORIGINATOR     = 

OBJECT_NAME    = STARLINK-35924
OBJECT_ID      = 2025-265A
CENTER_NAME    = EARTH
REF_FRAME      = TEME
TIME_SYSTEM    = UTC
MEAN_ELEMENT_THEORY = SGP/SGP4

EPOCH          = 2025-11-28T14:00:01.999872
MEAN_MOTION    = 15.84782637
ECCENTRICITY   = .00014456
INCLINATION    = 43.0002
RA_OF_ASC_NODE = 138.8079
ARG_OF_PERICENTER = 271.3647
MEAN_ANOMALY   = 217.6391

EPHEMERIS_TYPE = 0
CLASSIFICATION_TYPE = U
NORAD_CAT_ID   = 66516
ELEMENT_SET_NO = 999
REV_AT_EPOCH   = 270
BSTAR          = -.61036867E-2
MEAN_MOTION_DOT = -.1292842E-1
MEAN_MOTION_DDOT = 0

CCSDS_OMM_VERS = 2.0
CREATION_DATE  = 
ORIGINATOR     = 

OBJECT_NAME    = STARLINK-35937
OBJECT_ID      = 2025-265B
CENTER_NAME    = EARTH
REF_FRAME      = TEME
TIME_SYSTEM    = UTC
MEAN_ELEMENT_THEORY = SGP/SGP4

EPOCH          = 2025-11-28T14:00:01.999872
MEAN_MOTION    = 15.84797898
ECCENTRICITY   = .00014698
INCLINATION    = 43.0003
RA_OF_ASC_NODE = 138.8031
ARG_OF_PERICENTER = 273.4765
MEAN_ANOMALY   = 217.6376

EPHEMERIS_TYPE = 0
CLASSIFICATION_TYPE = U
NORAD_CAT_ID   = 66517
ELEMENT_SET_NO = 999
REV_AT_EPOCH   = 272
BSTAR          = -.61078682E-2
MEAN_MOTION_DOT = -.1294485E-1
MEAN_MOTION_DDOT = 0

CCSDS_OMM_VERS = 2.0
CREATION_DATE  = 
ORIGINATOR     = 

OBJECT_NAME    = STARLINK-35962
OBJECT_ID      = 2025-265C
CENTER_NAME    = EARTH
REF_FRAME      = TEME
TIME_SYSTEM    = UTC
MEAN_ELEMENT_THEORY = SGP/SGP4

EPOCH          = 2025-11-28T14:00:01.999872
MEAN_MOTION    = 15.84826140
ECCENTRICITY   = .00014685
INCLINATION    = 43.0002
RA_OF_ASC_NODE = 138.7981
ARG_OF_PERICENTER = 273.0511
MEAN_ANOMALY   = 219.9885

EPHEMERIS_TYPE = 0
CLASSIFICATION_TYPE = U
NORAD_CAT_ID   = 66518
ELEMENT_SET_NO = 999
REV_AT_EPOCH   = 272
BSTAR          = -.61382263E-2
MEAN_MOTION_DOT = -.1301722E-1
MEAN_MOTION_DDOT = 0

CCSDS_OMM_VERS = 2.0
CREATION_DATE  = 
ORIGINATOR     = 

OBJECT_NAME    = STARLINK-35931
OBJECT_ID      = 2025-265D
CENTER_NAME    = EARTH
REF_FRAME      = TEME
TIME_SYSTEM    = UTC
MEAN_ELEMENT_THEORY = SGP/SGP4

EPOCH          = 2025-11-28T14:00:01.999872
MEAN_MOTION    = 15.84839543
ECCENTRICITY   = .0001481
INCLINATION    = 43.0003
RA_OF_ASC_NODE = 138.7921
ARG_OF_PERICENTER = 274.0243
MEAN_ANOMALY   = 221.2662

EPHEMERIS_TYPE = 0
CLASSIFICATION_TYPE = U
NORAD_CAT_ID   = 66519
ELEMENT_SET_NO = 999
REV_AT_EPOCH   = 272
BSTAR          = -.61559864E-2
MEAN_MOTION_DOT = -.1305793E-1
MEAN_MOTION_DDOT = 0

CCSDS_OMM_VERS = 2.0
CREATION_DATE  = 
ORIGINATOR     = 

OBJECT_NAME    = STARLINK-35952
OBJECT_ID      = 2025-265E
CENTER_NAME    = EARTH
REF_FRAME      = TEME
TIME_SYSTEM    = UTC
MEAN_ELEMENT_THEORY = SGP/SGP4

EPOCH          = 2025-11-28T14:00:01.999872
MEAN_MOTION    = 15.84855924
ECCENTRICITY   = .00015081
INCLINATION    = 43.0002
RA_OF_ASC_NODE = 138.7862
ARG_OF_PERICENTER = 272.4010
MEAN_ANOMALY   = 225.1600

EPHEMERIS_TYPE = 0
CLASSIFICATION_TYPE = U
NORAD_CAT_ID   = 66520
ELEMENT_SET_NO = 999
REV_AT_EPOCH   = 272
BSTAR          = -.62024177E-2
MEAN_MOTION_DOT = -.1315385E-1
MEAN_MOTION_DDOT = 0

CCSDS_OMM_VERS = 2.0
CREATION_DATE  = 
ORIGINATOR     = 

OBJECT_NAME    = STARLINK-35915
OBJECT_ID      = 2025-265F
CENTER_NAME    = EARTH
REF_FRAME      = TEME
TIME_SYSTEM    = UTC
MEAN_ELEMENT_THEORY = SGP/SGP4

EPOCH          = 2025-11-28T14:00:01.999872
MEAN_MOTION    = 15.84880851
ECCENTRICITY   = .00015487
INCLINATION    = 43.0003
RA_OF_ASC_NODE = 138.7817
ARG_OF_PERICENTER = 268.1329
MEAN_ANOMALY   = 231.2469

EPHEMERIS_TYPE = 0
CLASSIFICATION_TYPE = U
NORAD_CAT_ID   = 66521
ELEMENT_SET_NO = 999
REV_AT_EPOCH   = 272
BSTAR          = -.61783246E-2
MEAN_MOTION_DOT = -.1312325E-1
MEAN_MOTION_DDOT = 0

