STARLINK-35600          
1 66510U 25263AB  25332.58335648 -.01658565  00000+0 -89869-2 0  9992
2 66510  42.9973 209.3975 0001618 258.8838 240.3997 15.82177892  3363
STARLINK-35444          
1 66511U 25263AC  25332.58335648 -.01679330  00000+0 -91816-2 0  9991
2 66511  42.9970 209.3835 0001581 262.1400 242.5802 15.82029963  3362
STARLINK-35366          
1 66512U 25263AD  25332.58335648 -.01816126  00000+0 -98737-2 0  9997
2 66512  42.9968 209.3687 0001392 256.0930 254.2757 15.81885871  3361
STARLINK-35692          
1 66513U 25263AE  25332.58335648 -.01670313  00000+0 -91002-2 0  9992
2 66513  42.9971 209.3900 0001491 258.6300 243.5347 15.82087453  3360
SENTINEL-6B             
1 66514U 25264A   25332.62475433 -.00000048  00000+0  57575-4 0  9995
2 66514  66.0391 191.9350 0011498 269.3086  90.6614 12.85876689  1472
SZ-21 MODULE            
1 66515U 25246C   25332.66465845  .00027837  00000+0  31854-3 0  9991
2 66515  41.4759 101.8430 0005236 173.0279 187.0634 15.61497174  2249
STARLINK-35924          
1 66516U 25265A   25332.58335648 -.01292842  00000+0 -61037-2 0  9999
2 66516  43.0002 138.8079 0001445 271.3647 217.6391 15.84782637  2704
STARLINK-35937          
1 66517U 25265B   25332.58335648 -.01294485  00000+0 -61079-2 0  9991
2 66517  43.0003 138.8031 0001469 273.4765 217.6376 15.84797898  2724
STARLINK-35962          
1 66518U 25265C   25332.58335648 -.01301722  00000+0 -61382-2 0  9992
2 66518  43.0002 138.7981 0001468 273.0511 219.9885 15.84826140  2724
STARLINK-35931          
1 66519U 25265D   25332.58335648 -.01305793  00000+0 -61560-2 0  9993
2 66519  43.0003 138.7921 0001481 274.0243 221.2662 15.84839543  2728
STARLINK-35952          
1 66520U 25265E   25332.58335648 -.01315385  00000+0 -62024-2 0  9999
2 66520  43.0002 138.7862 0001508 272.4010 225.1600 15.84855924  2723
STARLINK-35915          
1 66521U 25265F   25332.58335648 -.01312325  00000+0 -61783-2 0  9992
2 66521  43.0003 138.7817 0001548 268.1329 231.2469 15.84880851  2722
